HAWK-C                  
1 43799U 18099AT  26068.67261865  .00009431  00000+0  35663-3 0  9994
2 43799  97.4027 122.6817 0040363 277.4052  82.2601 15.26407167398720
STARLINK-31837          
1 61514U 24183F   26068.50029563 -.00000008  00000+0  11849-4 0  9992
2 61514  53.1605 143.3068 0001207  89.8625 270.2514 15.30184239 79623
